[{"OBJECT_NAME":"STARLINK-32007","OBJECT_ID":"2024-117D","EPOCH":"2026-03-09T05:24:47.361888","MEAN_MOTION":15.30183739,"ECCENTRICITY":0.00011037,"INCLINATION":53.1622,"RA_OF_ASC_NODE":39.4082,"ARG_OF_PERICENTER":96.1423,"MEAN_ANOMALY":263.9703,"EPHEMERIS_TYPE":0,"CLASSIFICATION_TYPE":"U","NORAD_CAT_ID":60094,"ELEMENT_SET_NO":999,"REV_AT_EPOCH":9681,"BSTAR":1.2225872e-5,"MEAN_MOTION_DOT":3.0e-8,"MEAN_MOTION_DDOT":0},{"OBJECT_NAME":"YAOGAN-43 01F","OBJECT_ID":"2024-148F","EPOCH":"2026-03-10T00:23:08.877408","MEAN_MOTION":15.29824616,"ECCENTRICITY":0.00057048,"INCLINATION":34.9925,"RA_OF_ASC_NODE":59.8891,"ARG_OF_PERICENTER":18.4862,"MEAN_ANOMALY":341.6062,"EPHEMERIS_TYPE":0,"CLASSIFICATION_TYPE":"U","NORAD_CAT_ID":60463,"ELEMENT_SET_NO":999,"REV_AT_EPOCH":8707,"BSTAR":0.00058388219,"MEAN_MOTION_DOT":0.00017308,"MEAN_MOTION_DDOT":0}]
